CCSDS_OMM_VERS = 2.0
CREATION_DATE  = 
ORIGINATOR     = 

OBJECT_NAME    = STARLINK-35877
OBJECT_ID      = 2025-294V
CENTER_NAME    = EARTH
REF_FRAME      = TEME
TIME_SYSTEM    = UTC
MEAN_ELEMENT_THEORY = SGP/SGP4

EPOCH          = 2026-01-08T10:35:14.496864
MEAN_MOTION    = 15.40675545
ECCENTRICITY   = .0001532
INCLINATION    = 43.0021
RA_OF_ASC_NODE = 22.7726
ARG_OF_PERICENTER = 270.6946
MEAN_ANOMALY   = 89.3735

EPHEMERIS_TYPE = 0
CLASSIFICATION_TYPE = U
NORAD_CAT_ID   = 67049
ELEMENT_SET_NO = 999
REV_AT_EPOCH   = 553
BSTAR          = .18282E-2
MEAN_MOTION_DOT = .76775E-3
MEAN_MOTION_DDOT = 0

CCSDS_OMM_VERS = 2.0
CREATION_DATE  = 
ORIGINATOR     = 

OBJECT_NAME    = STARLINK-36078
OBJECT_ID      = 2025-294W
CENTER_NAME    = EARTH
REF_FRAME      = TEME
TIME_SYSTEM    = UTC
MEAN_ELEMENT_THEORY = SGP/SGP4

EPOCH          = 2026-01-08T11:04:47.093952
MEAN_MOTION    = 15.50348952
ECCENTRICITY   = .0005949
INCLINATION    = 43.0015
RA_OF_ASC_NODE = 22.0575
ARG_OF_PERICENTER = 241.9341
MEAN_ANOMALY   = 118.0918

EPHEMERIS_TYPE = 0
CLASSIFICATION_TYPE = U
NORAD_CAT_ID   = 67050
ELEMENT_SET_NO = 999
REV_AT_EPOCH   = 554
BSTAR          = .46332E-2
MEAN_MOTION_DOT = .279191E-2
MEAN_MOTION_DDOT = 0

CCSDS_OMM_VERS = 2.0
CREATION_DATE  = 
ORIGINATOR     = 

OBJECT_NAME    = STARLINK-35706
OBJECT_ID      = 2025-294X
CENTER_NAME    = EARTH
REF_FRAME      = TEME
TIME_SYSTEM    = UTC
MEAN_ELEMENT_THEORY = SGP/SGP4

EPOCH          = 2026-01-08T12:00:01.999296
MEAN_MOTION    = 15.44001527
ECCENTRICITY   = .0000911
INCLINATION    = 43.0014
RA_OF_ASC_NODE = 21.8757
ARG_OF_PERICENTER = 296.0695
MEAN_ANOMALY   = 262.9770

EPHEMERIS_TYPE = 0
CLASSIFICATION_TYPE = U
NORAD_CAT_ID   = 67051
ELEMENT_SET_NO = 999
REV_AT_EPOCH   = 458
BSTAR          = -.46751E-1
MEAN_MOTION_DOT = -.195058E-1
MEAN_MOTION_DDOT = 0

CCSDS_OMM_VERS = 2.0
CREATION_DATE  = 
ORIGINATOR     = 

OBJECT_NAME    = STARLINK-35720
OBJECT_ID      = 2025-294Y
CENTER_NAME    = EARTH
REF_FRAME      = TEME
TIME_SYSTEM    = UTC
MEAN_ELEMENT_THEORY = SGP/SGP4

EPOCH          = 2026-01-07T21:09:02.329344
MEAN_MOTION    = 15.50669216
ECCENTRICITY   = .0000904
INCLINATION    = 42.9992
RA_OF_ASC_NODE = 25.4445
ARG_OF_PERICENTER = 281.8375
MEAN_ANOMALY   = 78.2383

EPHEMERIS_TYPE = 0
CLASSIFICATION_TYPE = U
NORAD_CAT_ID   = 67052
ELEMENT_SET_NO = 999
REV_AT_EPOCH   = 545
BSTAR          = .20043E-2
MEAN_MOTION_DOT = .119434E-2
MEAN_MOTION_DDOT = 0

CCSDS_OMM_VERS = 2.0
CREATION_DATE  = 
ORIGINATOR     = 

OBJECT_NAME    = STARLINK-35739
OBJECT_ID      = 2025-294Z
CENTER_NAME    = EARTH
REF_FRAME      = TEME
TIME_SYSTEM    = UTC
MEAN_ELEMENT_THEORY = SGP/SGP4

EPOCH          = 2026-01-08T12:00:01.999296
MEAN_MOTION    = 15.40625498
ECCENTRICITY   = .0001541
INCLINATION    = 43.0007
RA_OF_ASC_NODE = 21.9221
ARG_OF_PERICENTER = 274.9145
MEAN_ANOMALY   = 263.7336

EPHEMERIS_TYPE = 0
CLASSIFICATION_TYPE = U
NORAD_CAT_ID   = 67053
ELEMENT_SET_NO = 999
REV_AT_EPOCH   = 422
BSTAR          = .26294E-2
MEAN_MOTION_DOT = .110867E-2
MEAN_MOTION_DDOT = 0

CCSDS_OMM_VERS = 2.0
CREATION_DATE  = 
ORIGINATOR     = 

OBJECT_NAME    = STARLINK-35754
OBJECT_ID      = 2025-294AA
CENTER_NAME    = EARTH
REF_FRAME      = TEME
TIME_SYSTEM    = UTC
MEAN_ELEMENT_THEORY = SGP/SGP4

EPOCH          = 2026-01-08T12:00:01.999296
MEAN_MOTION    = 15.40636419
ECCENTRICITY   = .0000977
INCLINATION    = 43.0010
RA_OF_ASC_NODE = 22.0721
ARG_OF_PERICENTER = 271.3284
MEAN_ANOMALY   = 205.1369

EPHEMERIS_TYPE = 0
CLASSIFICATION_TYPE = U
NORAD_CAT_ID   = 67054
ELEMENT_SET_NO = 999
REV_AT_EPOCH   = 439
BSTAR          = .23569E-2
MEAN_MOTION_DOT = .99227E-3
MEAN_MOTION_DDOT = 0

CCSDS_OMM_VERS = 2.0
CREATION_DATE  = 
ORIGINATOR     = 

OBJECT_NAME    = STARLINK-35790
OBJECT_ID      = 2025-294AB
CENTER_NAME    = EARTH
REF_FRAME      = TEME
TIME_SYSTEM    = UTC
MEAN_ELEMENT_THEORY = SGP/SGP4

EPOCH          = 2026-01-08T12:00:01.999296
MEAN_MOTION    = 15.40630646
ECCENTRICITY   = .0001135
INCLINATION    = 43.0010
RA_OF_ASC_NODE = 22.1319
ARG_OF_PERICENTER = 268.8822
MEAN_ANOMALY   = 182.7072

EPHEMERIS_TYPE = 0
CLASSIFICATION_TYPE = U
NORAD_CAT_ID   = 67055
ELEMENT_SET_NO = 999
REV_AT_EPOCH   = 459
BSTAR          = .29991E-2
MEAN_MOTION_DOT = .126787E-2
MEAN_MOTION_DDOT = 0

CCSDS_OMM_VERS = 2.0
CREATION_DATE  = 
ORIGINATOR     = 

OBJECT_NAME    = STARLINK-36143
OBJECT_ID      = 2025-294AC
CENTER_NAME    = EARTH
REF_FRAME      = TEME
TIME_SYSTEM    = UTC
MEAN_ELEMENT_THEORY = SGP/SGP4

EPOCH          = 2026-01-08T12:00:01.999296
MEAN_MOTION    = 15.40637136
ECCENTRICITY   = .0000842
INCLINATION    = 43.0013
RA_OF_ASC_NODE = 22.2521
ARG_OF_PERICENTER = 263.1903
MEAN_ANOMALY   = 138.6307

EPHEMERIS_TYPE = 0
CLASSIFICATION_TYPE = U
NORAD_CAT_ID   = 67056
ELEMENT_SET_NO = 999
REV_AT_EPOCH   = 459
BSTAR          = .27927E-2
MEAN_MOTION_DOT = .117925E-2
MEAN_MOTION_DDOT = 0

CCSDS_OMM_VERS = 2.0
CREATION_DATE  = 
ORIGINATOR     = 

OBJECT_NAME    = STARLINK-36141
OBJECT_ID      = 2025-294AD
CENTER_NAME    = EARTH
REF_FRAME      = TEME
TIME_SYSTEM    = UTC
MEAN_ELEMENT_THEORY = SGP/SGP4

EPOCH          = 2026-01-08T12:00:01.999296
MEAN_MOTION    = 15.40630173
ECCENTRICITY   = .0000864
INCLINATION    = 43.0011
RA_OF_ASC_NODE = 22.2218
ARG_OF_PERICENTER = 255.1577
MEAN_ANOMALY   = 159.1111

EPHEMERIS_TYPE = 0
CLASSIFICATION_TYPE = U
NORAD_CAT_ID   = 67057
ELEMENT_SET_NO = 999
REV_AT_EPOCH   = 450
BSTAR          = .23483E-2
MEAN_MOTION_DOT = .98841E-3
MEAN_MOTION_DDOT = 0

CCSDS_OMM_VERS = 2.0
CREATION_DATE  = 
ORIGINATOR     = 

OBJECT_NAME    = STARLINK-35767
OBJECT_ID      = 2025-294AE
CENTER_NAME    = EARTH
REF_FRAME      = TEME
TIME_SYSTEM    = UTC
MEAN_ELEMENT_THEORY = SGP/SGP4

EPOCH          = 2026-01-08T12:00:01.999296
MEAN_MOTION    = 15.40646292
ECCENTRICITY   = .0001298
INCLINATION    = 43.0015
RA_OF_ASC_NODE = 22.1630
ARG_OF_PERICENTER = 271.4542
MEAN_ANOMALY   = 167.6714

EPHEMERIS_TYPE = 0
CLASSIFICATION_TYPE = U
NORAD_CAT_ID   = 67058
ELEMENT_SET_NO = 999
REV_AT_EPOCH   = 439
BSTAR          = .28515E-2
MEAN_MOTION_DOT = .120492E-2
MEAN_MOTION_DDOT = 0

CCSDS_OMM_VERS = 2.0
CREATION_DATE  = 
ORIGINATOR     = 

OBJECT_NAME    = HULIANWANG DIGUI-119
OBJECT_ID      = 2025-295A
CENTER_NAME    = EARTH
REF_FRAME      = TEME
TIME_SYSTEM    = UTC
MEAN_ELEMENT_THEORY = SGP/SGP4

EPOCH          = 2026-01-07T10:39:57.472416
MEAN_MOTION    = 14.22588849
ECCENTRICITY   = .00116533
INCLINATION    = 50.0036
RA_OF_ASC_NODE = 263.8725
ARG_OF_PERICENTER = 336.7862
MEAN_ANOMALY   = 23.2523

EPHEMERIS_TYPE = 0
CLASSIFICATION_TYPE = U
NORAD_CAT_ID   = 67059
ELEMENT_SET_NO = 999
REV_AT_EPOCH   = 378
BSTAR          = .21487321E-3
MEAN_MOTION_DOT = .325E-5
MEAN_MOTION_DDOT = 0

CCSDS_OMM_VERS = 2.0
CREATION_DATE  = 
ORIGINATOR     = 

OBJECT_NAME    = HULIANWANG DIGUI-120
OBJECT_ID      = 2025-295B
CENTER_NAME    = EARTH
REF_FRAME      = TEME
TIME_SYSTEM    = UTC
MEAN_ELEMENT_THEORY = SGP/SGP4

EPOCH          = 2026-01-07T10:32:23.738496
MEAN_MOTION    = 14.22912326
ECCENTRICITY   = .0011266
INCLINATION    = 50.0031
RA_OF_ASC_NODE = 263.8476
ARG_OF_PERICENTER = 339.6814
MEAN_ANOMALY   = 20.3649

EPHEMERIS_TYPE = 0
CLASSIFICATION_TYPE = U
NORAD_CAT_ID   = 67060
ELEMENT_SET_NO = 999
REV_AT_EPOCH   = 378
BSTAR          = .16043E-3
MEAN_MOTION_DOT = .204E-5
MEAN_MOTION_DDOT = 0

