STARLINK-35877          
1 67049U 25294V   26008.44114001  .00076775  00000+0  18282-2 0  9993
2 67049  43.0021  22.7726 0001532 270.6946  89.3735 15.40675545  5539
STARLINK-36078          
1 67050U 25294W   26008.46165618  .00279191  00000+0  46332-2 0  9991
2 67050  43.0015  22.0575 0005949 241.9341 118.0918 15.50348952  5549
STARLINK-35706          
1 67051U 25294X   26008.50002314 -.01950580  00000+0 -46751-1 0  9995
2 67051  43.0014  21.8757 0000911 296.0695 262.9770 15.44001527  4580
STARLINK-35720          
1 67052U 25294Y   26007.88127696  .00119434  00000+0  20043-2 0  9996
2 67052  42.9992  25.4445 0000904 281.8375  78.2383 15.50669216  5454
STARLINK-35739          
1 67053U 25294Z   26008.50002314  .00110867  00000+0  26294-2 0  9991
2 67053  43.0007  21.9221 0001541 274.9145 263.7336 15.40625498  4229
STARLINK-35754          
1 67054U 25294AA  26008.50002314  .00099227  00000+0  23569-2 0  9990
2 67054  43.0010  22.0721 0000977 271.3284 205.1369 15.40636419  4397
STARLINK-35790          
1 67055U 25294AB  26008.50002314  .00126787  00000+0  29991-2 0  9998
2 67055  43.0010  22.1319 0001135 268.8822 182.7072 15.40630646  4597
STARLINK-36143          
1 67056U 25294AC  26008.50002314  .00117925  00000+0  27927-2 0  9990
2 67056  43.0013  22.2521 0000842 263.1903 138.6307 15.40637136  4591
STARLINK-36141          
1 67057U 25294AD  26008.50002314  .00098841  00000+0  23483-2 0  9999
2 67057  43.0011  22.2218 0000864 255.1577 159.1111 15.40630173  4501
STARLINK-35767          
1 67058U 25294AE  26008.50002314  .00120492  00000+0  28515-2 0  9999
2 67058  43.0015  22.1630 0001298 271.4542 167.6714 15.40646292  4397
HULIANWANG DIGUI-119    
1 67059U 25295A   26007.44441519  .00000325  00000+0  21487-3 0  9991
2 67059  50.0036 263.8725 0011653 336.7862  23.2523 14.22588849  3783
HULIANWANG DIGUI-120    
1 67060U 25295B   26007.43916364  .00000204  00000+0  16043-3 0  9995
2 67060  50.0031 263.8476 0011266 339.6814  20.3649 14.22912326  3780
